{
  "type": "FeatureCollection",
  "features": [
    {
      "type": "Feature",
      "properties": {
        "norad_id": 66591,
        "name": "STARLINK-36058",
        "group": "last-30-days",
        "lat": -24.234532482768422,
        "lon": 44.05464254354648,
        "alt_km": 416.729889040168,
        "timestamp": "2025-12-12T07:43:19.258340+00:00",
        "meta_object_name": "STARLINK-36058",
        "meta_object_id": "2025-270D",
        "meta_epoch": "2025-12-11T20:00:01.999872",
        "meta_mean_motion": 15.50589257,
        "meta_eccentricity": 0.00018476,
        "meta_inclination": 42.9995,
        "meta_ra_of_asc_node": 198.0257,
        "meta_arg_of_pericenter": 265.7127,
        "meta_mean_anomaly": 101.7708,
        "meta_ephemeris_type": 0,
        "meta_classification_type": "U",
        "meta_norad_cat_id": 66591,
        "meta_element_set_no": 999,
        "meta_rev_at_epoch": 425,
        "meta_bstar": -0.0012116067,
        "meta_mean_motion_dot": -0.0007081,
        "meta_mean_motion_ddot": 0,
        "tle_line1": "1 66591U 25270D   25345.83335648 -.00070810  00000+0 -12116-2 0  9992",
        "tle_line2": "2 66591  42.9995 198.0257 0001847 265.7127 101.7708 15.50589257  4251"
      },
      "geometry": {
        "type": "Point",
        "coordinates": [
          44.05464254354648,
          -24.234532482768422
        ]
      }
    },
    {
      "type": "Feature",
      "properties": {
        "norad_id": 66592,
        "name": "STARLINK-36066",
        "group": "last-30-days",
        "lat": -25.38651882906242,
        "lon": 45.77795400500158,
        "alt_km": 416.437526806576,
        "timestamp": "2025-12-12T07:43:19.258350+00:00",
        "meta_object_name": "STARLINK-36066",
        "meta_object_id": "2025-270E",
        "meta_epoch": "2025-12-11T20:00:01.999872",
        "meta_mean_motion": 15.50529352,
        "meta_eccentricity": 0.00018058,
        "meta_inclination": 42.9995,
        "meta_ra_of_asc_node": 198.0206,
        "meta_arg_of_pericenter": 252.8251,
        "meta_mean_anomaly": 116.6006,
        "meta_ephemeris_type": 0,
        "meta_classification_type": "U",
        "meta_norad_cat_id": 66592,
        "meta_element_set_no": 999,
        "meta_rev_at_epoch": 415,
        "meta_bstar": 0.00091706285,
        "meta_mean_motion_dot": 0.00053733,
        "meta_mean_motion_ddot": 0,
        "tle_line1": "1 66592U 25270E   25345.83335648  .00053733  00000+0  91706-3 0  9999",
        "tle_line2": "2 66592  42.9995 198.0206 0001805 252.8251 116.6006 15.50529352  4150"
      },
      "geometry": {
        "type": "Point",
        "coordinates": [
          45.77795400500158,
          -25.38651882906242
        ]
      }
    },
    {
      "type": "Feature",
      "properties": {
        "norad_id": 66593,
        "name": "STARLINK-36031",
        "group": "last-30-days",
        "lat": -26.490473468621204,
        "lon": 47.491632078013005,
        "alt_km": 416.8394415344774,
        "timestamp": "2025-12-12T07:43:19.258366+00:00",
        "meta_object_name": "STARLINK-36031",
        "meta_object_id": "2025-270F",
        "meta_epoch": "2025-12-11T20:00:01.999872",
        "meta_mean_motion": 15.50491006,
        "meta_eccentricity": 0.0001506,
        "meta_inclination": 42.9996,
        "meta_ra_of_asc_node": 198.0164,
        "meta_arg_of_pericenter": 262.6534,
        "meta_mean_anomaly": 108.7264,
        "meta_ephemeris_type": 0,
        "meta_classification_type": "U",
        "meta_norad_cat_id": 66593,
        "meta_element_set_no": 999,
        "meta_rev_at_epoch": 425,
        "meta_bstar": 0.0011886518,
        "meta_mean_motion_dot": 0.00069796,
        "meta_mean_motion_ddot": 0,
        "tle_line1": "1 66593U 25270F   25345.83335648  .00069796  00000+0  11887-2 0  9997",
        "tle_line2": "2 66593  42.9996 198.0164 0001506 262.6534 108.7264 15.50491006  4259"
      },
      "geometry": {
        "type": "Point",
        "coordinates": [
          47.491632078013005,
          -26.490473468621204
        ]
      }
    },
    {
      "type": "Feature",
      "properties": {
        "norad_id": 66594,
        "name": "STARLINK-36032",
        "group": "last-30-days",
        "lat": -27.58052008509923,
        "lon": 49.248899712559684,
        "alt_km": 416.82634822349155,
        "timestamp": "2025-12-12T07:43:19.258395+00:00",
        "meta_object_name": "STARLINK-36032",
        "meta_object_id": "2025-270G",
        "meta_epoch": "2025-12-11T20:00:01.999872",
        "meta_mean_motion": 15.50509488,
        "meta_eccentricity": 0.00018226,
        "meta_inclination": 42.9995,
        "meta_ra_of_asc_node": 198.0111,
        "meta_arg_of_pericenter": 268.6367,
        "meta_mean_anomaly": 104.643,
        "meta_ephemeris_type": 0,
        "meta_classification_type": "U",
        "meta_norad_cat_id": 66594,
        "meta_element_set_no": 999,
        "meta_rev_at_epoch": 399,
        "meta_bstar": 0.00087470256,
        "meta_mean_motion_dot": 0.00051183,
        "meta_mean_motion_ddot": 0,
        "tle_line1": "1 66594U 25270G   25345.83335648  .00051183  00000+0  87470-3 0  9991",
        "tle_line2": "2 66594  42.9995 198.0111 0001822 268.6367 104.6430 15.50509488  3996"
      },
      "geometry": {
        "type": "Point",
        "coordinates": [
          49.248899712559684,
          -27.58052008509923
        ]
      }
    },
    {
      "type": "Feature",
      "properties": {
        "norad_id": 66595,
        "name": "STARLINK-35711",
        "group": "last-30-days",
        "lat": -28.59362078934796,
        "lon": 50.94830329365118,
        "alt_km": 417.0042179207776,
        "timestamp": "2025-12-12T07:43:19.258408+00:00",
        "meta_object_name": "STARLINK-35711",
        "meta_object_id": "2025-270H",
        "meta_epoch": "2025-12-11T20:00:01.999872",
        "meta_mean_motion": 15.50493605,
        "meta_eccentricity": 0.00010373,
        "meta_inclination": 42.9995,
        "meta_ra_of_asc_node": 198.0062,
        "meta_arg_of_pericenter": 232.5871,
        "meta_mean_anomaly": 142.5042,
        "meta_ephemeris_type": 0,
        "meta_classification_type": "U",
        "meta_norad_cat_id": 66595,
        "meta_element_set_no": 999,
        "meta_rev_at_epoch": 436,
        "meta_bstar": 0.0012310571,
        "meta_mean_motion_dot": 0.00072327,
        "meta_mean_motion_ddot": 0,
        "tle_line1": "1 66595U 25270H   25345.83335648  .00072327  00000+0  12311-2 0  9996",
        "tle_line2": "2 66595  42.9995 198.0062 0001037 232.5871 142.5042 15.50493605  4365"
      },
      "geometry": {
        "type": "Point",
        "coordinates": [
          50.94830329365118,
          -28.59362078934796
        ]
      }
    },
    {
      "type": "Feature",
      "properties": {
        "norad_id": 66596,
        "name": "STARLINK-35811",
        "group": "last-30-days",
        "lat": -26.59011495673709,
        "lon": 47.64848079805139,
        "alt_km": 427.38924531058547,
        "timestamp": "2025-12-12T07:43:19.258419+00:00",
        "meta_object_name": "STARLINK-35811",
        "meta_object_id": "2025-270J",
        "meta_epoch": "2025-12-11T20:00:01.999872",
        "meta_mean_motion": 15.48961445,
        "meta_eccentricity": 0.00017777,
        "meta_inclination": 42.9997,
        "meta_ra_of_asc_node": 198.0038,
        "meta_arg_of_pericenter": 262.6122,
        "meta_mean_anomaly": 113.5684,
        "meta_ephemeris_type": 0,
        "meta_classification_type": "U",
        "meta_norad_cat_id": 66596,
        "meta_element_set_no": 999,
        "meta_rev_at_epoch": 436,
        "meta_bstar": -0.040196637,
        "meta_mean_motion_dot": -0.01989763,
        "meta_mean_motion_ddot": 0,
        "tle_line1": "1 66596U 25270J   25345.83335648 -.01989763  00000+0 -40197-1 0  9993",
        "tle_line2": "2 66596  42.9997 198.0038 0001777 262.6122 113.5684 15.48961445  4364"
      },
      "geometry": {
        "type": "Point",
        "coordinates": [
          47.64848079805139,
          -26.59011495673709
        ]
      }
    },
    {
      "type": "Feature",
      "properties": {
        "norad_id": 66597,
        "name": "STARLINK-35820",
        "group": "last-30-days",
        "lat": -30.718142575534063,
        "lon": 54.756567941310635,
        "alt_km": 417.0123132829922,
        "timestamp": "2025-12-12T07:43:19.258429+00:00",
        "meta_object_name": "STARLINK-35820",
        "meta_object_id": "2025-270K",
        "meta_epoch": "2025-12-11T20:00:01.999872",
        "meta_mean_motion": 15.5049084,
        "meta_eccentricity": 0.00017423,
        "meta_inclination": 42.9998,
        "meta_ra_of_asc_node": 197.9973,
        "meta_arg_of_pericenter": 273.9021,
        "meta_mean_anomaly": 105.1362,
        "meta_ephemeris_type": 0,
        "meta_classification_type": "U",
        "meta_norad_cat_id": 66597,
        "meta_element_set_no": 999,
        "meta_rev_at_epoch": 436,
        "meta_bstar": 0.0014992069,
        "meta_mean_motion_dot": 0.00088331,
        "meta_mean_motion_ddot": 0,
        "tle_line1": "1 66597U 25270K   25345.83335648  .00088331  00000+0  14992-2 0  9997",
        "tle_line2": "2 66597  42.9998 197.9973 0001742 273.9021 105.1362 15.50490840  4366"
      },
      "geometry": {
        "type": "Point",
        "coordinates": [
          54.756567941310635,
          -30.718142575534063
        ]
      }
    }
  ]
}